{
  "type": "FeatureCollection",
  "features": [
    {
      "type": "Feature",
      "properties": {
        "norad_id": 42917,
        "name": "QZS-3 (QZSS/PRN 199)",
        "group": "gnss",
        "lat": -0.031811982710834144,
        "lon": 34.02392026766177,
        "alt_km": 35789.30633778375,
        "timestamp": "2025-12-27T11:23:20.140828+00:00",
        "meta_object_name": "QZS-3 (QZSS/PRN 199)",
        "meta_object_id": "2017-048A",
        "meta_epoch": "2025-12-27T01:00:38.527776",
        "meta_mean_motion": 1.00276182,
        "meta_eccentricity": 0.0001578,
        "meta_inclination": 0.0568,
        "meta_ra_of_asc_node": 171.999,
        "meta_arg_of_pericenter": 90.854,
        "meta_mean_anomaly": 335.0582,
        "meta_ephemeris_type": 0,
        "meta_classification_type": "U",
        "meta_norad_cat_id": 42917,
        "meta_element_set_no": 999,
        "meta_rev_at_epoch": 3053,
        "meta_bstar": 0,
        "meta_mean_motion_dot": -3.25e-06,
        "meta_mean_motion_ddot": 0,
        "tle_line1": "1 42917U 17048A   25361.04211259 -.00000325  00000+0  00000+0 0  9993",
        "tle_line2": "2 42917   0.0568 171.9990 0001578  90.8540 335.0582  1.00276182 30531"
      },
      "geometry": {
        "type": "Point",
        "coordinates": [
          34.02392026766177,
          -0.031811982710834144
        ]
      }
    },
    {
      "type": "Feature",
      "properties": {
        "norad_id": 42939,
        "name": "COSMOS 2522 (752)",
        "group": "gnss",
        "lat": 61.15250192858703,
        "lon": -100.22704238907559,
        "alt_km": 19136.52277637262,
        "timestamp": "2025-12-27T11:23:20.140841+00:00",
        "meta_object_name": "COSMOS 2522 (752)",
        "meta_object_id": "2017-055A",
        "meta_epoch": "2025-12-26T21:43:05.051712",
        "meta_mean_motion": 2.13102008,
        "meta_eccentricity": 0.0006277,
        "meta_inclination": 64.0768,
        "meta_ra_of_asc_node": 197.7464,
        "meta_arg_of_pericenter": 223.1199,
        "meta_mean_anomaly": 136.885,
        "meta_ephemeris_type": 0,
        "meta_classification_type": "U",
        "meta_norad_cat_id": 42939,
        "meta_element_set_no": 999,
        "meta_rev_at_epoch": 6430,
        "meta_bstar": 0,
        "meta_mean_motion_dot": 1.18e-06,
        "meta_mean_motion_ddot": 0,
        "tle_line1": "1 42939U 17055A   25360.90491958  .00000118  00000+0  00000+0 0  9994",
        "tle_line2": "2 42939  64.0768 197.7464 0006277 223.1199 136.8850  2.13102008 64308"
      },
      "geometry": {
        "type": "Point",
        "coordinates": [
          -100.22704238907559,
          61.15250192858703
        ]
      }
    },
    {
      "type": "Feature",
      "properties": {
        "norad_id": 42965,
        "name": "QZS-4 (QZSS/PRN 195)",
        "group": "gnss",
        "lat": 34.83954456604462,
        "lon": 41.1001441294364,
        "alt_km": 38576.04987114514,
        "timestamp": "2025-12-27T11:23:20.140855+00:00",
        "meta_object_name": "QZS-4 (QZSS/PRN 195)",
        "meta_object_id": "2017-062A",
        "meta_epoch": "2025-12-24T19:47:03.643008",
        "meta_mean_motion": 1.00301022,
        "meta_eccentricity": 0.0751986,
        "meta_inclination": 40.2171,
        "meta_ra_of_asc_node": 345.7144,
        "meta_arg_of_pericenter": 268.3083,
        "meta_mean_anomaly": 272.9513,
        "meta_ephemeris_type": 0,
        "meta_classification_type": "U",
        "meta_norad_cat_id": 42965,
        "meta_element_set_no": 999,
        "meta_rev_at_epoch": 3005,
        "meta_bstar": 0,
        "meta_mean_motion_dot": -3.02e-06,
        "meta_mean_motion_ddot": 0,
        "tle_line1": "1 42965U 17062A   25358.82434772 -.00000302  00000+0  00000+0 0  9996",
        "tle_line2": "2 42965  40.2171 345.7144 0751986 268.3083 272.9513  1.00301022 30053"
      },
      "geometry": {
        "type": "Point",
        "coordinates": [
          41.1001441294364,
          34.83954456604462
        ]
      }
    },
    {
      "type": "Feature",
      "properties": {
        "norad_id": 43001,
        "name": "BEIDOU-3 M1 (C19)",
        "group": "gnss",
        "lat": 50.67008113258818,
        "lon": -164.9616452725366,
        "alt_km": 21548.922042925908,
        "timestamp": "2025-12-27T11:23:20.140868+00:00",
        "meta_object_name": "BEIDOU-3 M1 (C19)",
        "meta_object_id": "2017-069A",
        "meta_epoch": "2025-12-25T03:49:47.920224",
        "meta_mean_motion": 1.86231313,
        "meta_eccentricity": 0.0009789,
        "meta_inclination": 56.5365,
        "meta_ra_of_asc_node": 68.8241,
        "meta_arg_of_pericenter": 302.2681,
        "meta_mean_anomaly": 57.6912,
        "meta_ephemeris_type": 0,
        "meta_classification_type": "U",
        "meta_norad_cat_id": 43001,
        "meta_element_set_no": 999,
        "meta_rev_at_epoch": 5536,
        "meta_bstar": 0,
        "meta_mean_motion_dot": -2.5e-07,
        "meta_mean_motion_ddot": 0,
        "tle_line1": "1 43001U 17069A   25359.15958241 -.00000025  00000+0  00000+0 0  9996",
        "tle_line2": "2 43001  56.5365  68.8241 0009789 302.2681  57.6912  1.86231313 55361"
      },
      "geometry": {
        "type": "Point",
        "coordinates": [
          -164.9616452725366,
          50.67008113258818
        ]
      }
    },
    {
      "type": "Feature",
      "properties": {
        "norad_id": 43002,
        "name": "BEIDOU-3 M2 (C20)",
        "group": "gnss",
        "lat": 21.960279113778775,
        "lon": -126.6491501361822,
        "alt_km": 21544.22103866832,
        "timestamp": "2025-12-27T11:23:20.140916+00:00",
        "meta_object_name": "BEIDOU-3 M2 (C20)",
        "meta_object_id": "2017-069B",
        "meta_epoch": "2025-12-25T15:14:16.903968",
        "meta_mean_motion": 1.86231039,
        "meta_eccentricity": 0.0006764,
        "meta_inclination": 56.5366,
        "meta_ra_of_asc_node": 68.8439,
        "meta_arg_of_pericenter": 327.6836,
        "meta_mean_anomaly": 32.3283,
        "meta_ephemeris_type": 0,
        "meta_classification_type": "U",
        "meta_norad_cat_id": 43002,
        "meta_element_set_no": 999,
        "meta_rev_at_epoch": 5536,
        "meta_bstar": 0,
        "meta_mean_motion_dot": -2.7e-07,
        "meta_mean_motion_ddot": 0,
        "tle_line1": "1 43002U 17069B   25359.63491787 -.00000027  00000+0  00000+0 0  9999",
        "tle_line2": "2 43002  56.5366  68.8439 0006764 327.6836  32.3283  1.86231039 55361"
      },
      "geometry": {
        "type": "Point",
        "coordinates": [
          -126.6491501361822,
          21.960279113778775
        ]
      }
    },
    {
      "type": "Feature",
      "properties": {
        "norad_id": 43055,
        "name": "GSAT0215 (GALILEO 19)",
        "group": "gnss",
        "lat": -17.000965491898246,
        "lon": 58.55186716464182,
        "alt_km": 23227.633199941713,
        "timestamp": "2025-12-27T11:23:20.140928+00:00",
        "meta_object_name": "GSAT0215 (GALILEO 19)",
        "meta_object_id": "2017-079A",
        "meta_epoch": "2025-12-24T05:08:42.877824",
        "meta_mean_motion": 1.70473983,
        "meta_eccentricity": 0.00011857,
        "meta_inclination": 55.1264,
        "meta_ra_of_asc_node": 226.3216,
        "meta_arg_of_pericenter": 351.3988,
        "meta_mean_anomaly": 8.6951,
        "meta_ephemeris_type": 0,
        "meta_classification_type": "U",
        "meta_norad_cat_id": 43055,
        "meta_element_set_no": 999,
        "meta_rev_at_epoch": 5000,
        "meta_bstar": 0,
        "meta_mean_motion_dot": 7.2e-07,
        "meta_mean_motion_ddot": 0,
        "tle_line1": "1 43055U 17079A   25358.21438516  .00000072  00000+0  00000+0 0  9991",
        "tle_line2": "2 43055  55.1264 226.3216 0001185 351.3988   8.6951  1.70473983 50002"
      },
      "geometry": {
        "type": "Point",
        "coordinates": [
          58.55186716464182,
          -17.000965491898246
        ]
      }
    },
    {
      "type": "Feature",
      "properties": {
        "norad_id": 43056,
        "name": "GSAT0216 (GALILEO 20)",
        "group": "gnss",
        "lat": 17.968282318577174,
        "lon": -120.68847843671628,
        "alt_km": 23216.31008138206,
        "timestamp": "2025-12-27T11:23:20.140939+00:00",
        "meta_object_name": "GSAT0216 (GALILEO 20)",
        "meta_object_id": "2017-079B",
        "meta_epoch": "2025-12-25T02:12:49.402944",
        "meta_mean_motion": 1.7047407,
        "meta_eccentricity": 0.00022728,
        "meta_inclination": 55.1265,
        "meta_ra_of_asc_node": 226.2974,
        "meta_arg_of_pericenter": 325.9162,
        "meta_mean_anomaly": 34.1608,
        "meta_ephemeris_type": 0,
        "meta_classification_type": "U",
        "meta_norad_cat_id": 43056,
        "meta_element_set_no": 999,
        "meta_rev_at_epoch": 5003,
        "meta_bstar": 0,
        "meta_mean_motion_dot": 7e-07,
        "meta_mean_motion_ddot": 0,
        "tle_line1": "1 43056U 17079B   25359.09223846  .00000070  00000+0  00000+0 0  9995",
        "tle_line2": "2 43056  55.1265 226.2974 0002272 325.9162  34.1608  1.70474070 50037"
      },
      "geometry": {
        "type": "Point",
        "coordinates": [
          -120.68847843671628,
          17.968282318577174
        ]
      }
    }
  ]
}